OBJECT_NAME,OBJECT_ID,EPOCH,MEAN_MOTION,ECCENTRICITY,INCLINATION,RA_OF_ASC_NODE,ARG_OF_PERICENTER,MEAN_ANOMALY,EPHEMERIS_TYPE,CLASSIFICATION_TYPE,NORAD_CAT_ID,ELEMENT_SET_NO,REV_AT_EPOCH,BSTAR,MEAN_MOTION_DOT,MEAN_MOTION_DDOT
STARLINK-4478,2022-101C,2024-11-29T02:30:27.504864,15.08840067,.0002013,53.2138,4.2204,91.0679,269.0544,0,U,53529,999,12587,.12743E-3,.174E-4,0
STARLINK-4482,2022-101D,2024-11-29T02:51:41.832288,15.08833931,.0002151,53.2132,4.3691,101.6184,258.5049,0,U,53530,999,12587,.92909E-4,.119E-4,0
STARLINK-4487,2022-101E,2024-11-28T02:34:20.416800,15.08865319,.0001148,53.2191,8.6871,92.7631,267.3493,0,U,53531,999,12572,.10678E-3,.1413E-4,0
STARLINK-4483,2022-101F,2024-11-28T09:43:36.182496,15.08844773,.0001189,53.2179,7.3490,78.0059,282.1067,0,U,53532,999,12577,-.83589E-4,-.1618E-4,0
STARLINK-4493,2022-101G,2024-11-28T09:38:18.470688,15.08840377,.0001345,53.2181,7.3568,88.7989,271.3157,0,U,53533,999,12577,-.32925E-5,-.34E-5,0
STARLINK-4488,2022-101H,2024-11-28T22:00:00.999936,15.24973568,.0001437,53.2194,4.0989,85.4740,28.1544,0,U,53534,999,574,.45636E-1,.1261174E-1,0
STARLINK-4138,2022-101J,2024-11-28T14:19:07.615488,15.08880825,.0000142,53.2197,6.4975,207.4497,152.6487,0,U,53535,999,12580,.30368E-3,.4554E-4,0
STARLINK-4053,2022-101K,2024-11-29T02:26:28.217472,15.08839485,.0001447,53.2180,354.1476,89.8443,270.2715,0,U,53536,999,12601,.1187E-3,.1602E-4,0
STARLINK-4120,2022-101L,2024-11-29T01:28:14.437344,15.08837696,.00017,53.2176,4.3780,92.0571,268.0616,0,U,53537,999,12587,.78334E-4,.959E-5,0
STARLINK-4118,2022-101M,2024-11-28T12:13:19.167168,15.08838507,.000154,53.2181,356.8849,88.8186,271.2983,0,U,53538,999,12592,.11491E-3,.1541E-4,0
STARLINK-4123,2022-101N,2024-11-29T02:56:57.465312,15.08835374,.0002021,53.2153,4.1293,101.5302,258.5918,0,U,53539,999,12588,.17581E-3,.2511E-4,0
STARLINK-4486,2022-101P,2024-11-28T11:21:44.850528,15.08859929,.0001978,53.2159,357.3990,94.9102,265.2116,0,U,53540,999,12660,.52506E-5,-.205E-5,0
STARLINK-4485,2022-101Q,2024-11-29T02:46:21.410112,15.08836791,.0001698,53.2176,4.1604,102.1140,258.0042,0,U,53541,999,12588,.58083E-4,.636E-5,0
STARLINK-4489,2022-101R,2024-11-28T13:32:47.129568,15.08860485,.0001489,53.2171,356.6380,87.0304,273.0859,0,U,53542,999,12662,.27781E-3,.4139E-4,0
STARLINK-4297,2022-101S,2024-11-28T02:46:18.475104,15.08839980,.0001457,53.2162,358.7190,88.0836,272.0322,0,U,53543,999,12655,.2734E-4,.147E-5,0
STARLINK-4303,2022-101T,2024-11-29T02:05:13.718976,15.08872133,.0001933,53.2169,354.2900,100.8560,259.2649,0,U,53544,999,12601,.33384E-3,.5034E-4,0
STARLINK-4475,2022-101U,2024-11-28T13:38:05.898048,15.08840262,.0001971,53.2165,356.6217,111.2813,248.8390,0,U,53545,999,12662,.2877E-3,.4294E-4,0
STARLINK-4477,2022-101V,2024-11-28T07:23:05.585856,15.08843214,.0001464,53.2165,347.3167,137.5953,222.5153,0,U,53546,999,12604,-.52232E-4,-.1119E-4,0
STARLINK-4474,2022-101W,2024-11-28T18:13:39.716544,15.08847866,.0001927,53.2188,355.7620,88.1184,272.0029,0,U,53547,999,12663,.2281E-3,.3345E-4,0
STARLINK-4513,2022-101X,2024-11-28T08:20:09.550464,15.08799777,.0001615,53.2185,357.6096,121.9658,238.1491,0,U,53548,999,12590,.78344E-3,.12189E-3,0
STARLINK-4518,2022-101Z,2024-11-28T08:14:50.762112,15.08839155,.0001579,53.2176,357.6283,89.9018,270.2155,0,U,53550,999,12656,.14382E-3,.2002E-4,0
STARLINK-4514,2022-101AA,2024-11-28T08:25:27.026400,15.08838368,.0001588,53.2181,357.5934,96.0959,264.0214,0,U,53551,999,12656,.30152E-4,.192E-5,0
STARLINK-4495,2022-101AB,2024-11-28T11:15:01.382400,15.08850562,.0001631,53.2178,357.0648,86.3234,273.7944,0,U,53552,999,12592,.12842E-3,.1757E-4,0
STARLINK-4501,2022-101AC,2024-11-28T14:15:09.946368,15.08845859,.0001667,53.2186,356.3756,102.2333,257.8846,0,U,53553,999,12660,.14869E-3,.208E-4,0
STARLINK-4506,2022-101AD,2024-11-28T14:16:33.999744,15.08846504,.0001638,53.2174,356.5100,85.5572,274.5607,0,U,53554,999,12594,.1385E-3,.1917E-4,0
STARLINK-4504,2022-101AE,2024-11-28T11:20:18.927456,15.08845230,.0001513,53.2175,357.0494,88.5480,271.5685,0,U,53555,999,12658,.1085E-3,.1439E-4,0
STARLINK-4505,2022-101AF,2024-11-27T12:38:25.796544,15.08837831,.0001437,53.2180,1.2942,90.9678,269.1479,0,U,53556,999,12578,.39962E-4,.348E-5,0
STARLINK-4502,2022-101AG,2024-11-29T01:28:11.637984,15.08840918,.0002301,53.2155,354.4020,122.3436,237.7779,0,U,53557,999,12601,.22078E-3,.3227E-4,0
STARLINK-4494,2022-101AH,2024-11-28T23:40:10.418016,15.08843043,.0002114,53.2177,349.4676,72.0306,288.0917,0,U,53558,999,12607,.11913E-3,.1608E-4,0
STARLINK-4508,2022-101AJ,2024-11-27T11:08:20.734368,15.08835582,.0001674,53.2185,1.5715,118.5693,241.5468,0,U,53559,999,12577,.25427E-4,.117E-5,0
STARLINK-4564,2022-101AK,2024-11-28T13:34:09.129216,15.08846514,.0001557,53.2191,346.8156,89.6344,270.4827,0,U,53560,999,12607,.15359E-3,.2158E-4,0
STARLINK-4563,2022-101AL,2024-11-29T01:06:59.424768,15.08844427,.000151,53.2179,354.4728,95.0793,265.0372,0,U,53561,999,12601,.79046E-4,.97E-5,0
STARLINK-4565,2022-101AM,2024-11-28T18:15:01.053504,15.08829580,.0001265,53.2175,345.9014,90.9168,269.1969,0,U,53562,999,12676,-.50846E-4,-.1097E-4,0
STARLINK-4561,2022-101AN,2024-11-28T07:17:55.293216,15.08842821,.0001476,53.2172,348.0289,95.5236,264.5924,0,U,53563,999,12603,.15993E-3,.2258E-4,0
STARLINK-4577,2022-101AP,2024-11-29T00:25:56.502048,15.08834351,.0001868,53.2177,344.6670,93.3147,266.8059,0,U,53564,999,12614,.22296E-3,.3262E-4,0
STARLINK-4575,2022-101AQ,2024-11-27T12:04:03.319680,15.08834859,.0001792,53.2171,351.5561,119.3119,240.8053,0,U,53565,999,12591,-.10035E-3,-.1885E-4,0
STARLINK-4576,2022-101AR,2024-11-28T17:53:46.956768,15.08844978,.0001893,53.2217,345.8126,91.2990,268.8220,0,U,53566,999,12679,.25981E-3,.385E-4,0
STARLINK-4585,2022-101AS,2024-11-28T18:09:42.158016,15.08848985,.0001689,53.2196,345.8794,82.3061,277.8123,0,U,53567,999,12610,.13353E-3,.1838E-4,0
STARLINK-4583,2022-101AT,2024-11-29T01:34:48.124992,15.08827019,.0001744,53.2178,344.2590,101.5100,258.6088,0,U,53568,999,12615,-.42598E-4,-.966E-5,0
STARLINK-4582,2022-101AU,2024-11-28T17:59:04.946784,15.08853084,.0001175,53.2179,345.8353,89.5780,270.5347,0,U,53569,999,12677,.49157E-3,.7547E-4,0
STARLINK-4550,2022-101AV,2024-11-28T17:43:08.958432,15.08834470,.0001739,53.2181,345.7648,84.5027,275.6164,0,U,53570,999,12679,-.11504E-2,-.18547E-3,0
STARLINK-4584,2022-101AW,2024-11-28T17:48:29.506752,15.08829322,.0002541,53.2197,345.7842,89.0115,271.1168,0,U,53571,999,12679,.57333E-4,.624E-5,0
STARLINK-4555,2022-101AX,2024-11-28T12:25:10.326432,15.08847874,.0001572,53.2176,346.5214,86.5458,273.5714,0,U,53572,999,12607,.17655E-3,.2523E-4,0
STARLINK-4547,2022-101AY,2024-11-29T01:29:29.511168,15.08836539,.0001367,53.2199,344.2333,102.6185,257.4960,0,U,53573,999,12615,.11542E-3,.1549E-4,0
STARLINK-4559,2022-101AZ,2024-11-28T07:44:19.470048,15.08843592,.0001542,53.2175,347.4345,92.6302,267.4867,0,U,53574,999,12604,.13449E-3,.1853E-4,0
STARLINK-4551,2022-101BA,2024-11-29T01:24:10.906848,15.08839218,.0001383,53.2154,344.2088,91.3754,268.7397,0,U,53575,999,12615,.10013E-3,.1306E-4,0
STARLINK-4581,2022-101BB,2024-11-28T12:42:28.267776,15.08845604,.0001825,53.2180,346.5922,93.8628,266.2573,0,U,53576,999,12689,.13032E-3,.1787E-4,0
STARLINK-4553,2022-101BC,2024-11-29T01:18:53.411040,15.08844019,.0001213,53.2206,344.1865,79.7818,280.3311,0,U,53577,999,12615,.18418E-3,.2645E-4,0
STARLINK-4556,2022-101BD,2024-11-29T01:02:57.153120,15.08844201,.0001738,53.2188,344.1172,91.9986,268.1205,0,U,53578,999,12615,.63544E-4,.723E-5,0
STARLINK-4580,2022-101BE,2024-11-28T07:28:24.153888,15.08851179,.00013,53.2183,347.3647,109.0147,251.0986,0,U,53579,999,12604,-.4624E-4,-.1024E-4,0
CHUANGXIN 16A (CX-16A),2022-102A,2024-11-28T15:16:38.383104,15.02443970,.0005349,28.9972,59.0866,167.4450,192.6282,0,U,53586,999,12428,.49148E-3,.6829E-4,0
BEIJING-3B,2022-103A,2024-11-29T03:31:16.421376,14.87801812,.0020112,97.8561,48.5187,98.1083,262.2416,0,U,53587,999,12310,.53768E-3,.4875E-4,0
STARLINK-4691,2022-104A,2024-11-28T21:43:00.930432,15.08841797,.0001413,53.2163,175.3565,88.6991,271.4163,0,U,53588,999,12460,.10012E-3,.1306E-4,0
STARLINK-4673,2022-104B,2024-11-28T19:41:06.365184,15.08837706,.0001288,53.2154,175.5403,87.9991,272.1149,0,U,53589,999,12561,.11436E-3,.1533E-4,0
STARLINK-4689,2022-104C,2024-11-28T13:40:46.758432,15.08842899,.000134,53.2157,176.8203,87.4333,272.6813,0,U,53590,999,12559,.1056E-3,.1393E-4,0
STARLINK-4674,2022-104D,2024-11-28T21:32:27.658176,15.08808049,.0002001,53.2147,175.3087,83.5955,276.5265,0,U,53591,999,12564,-.17763E-3,-.3112E-4,0
STARLINK-4672,2022-104E,2024-11-28T23:03:52.069248,15.08837710,.000132,53.2147,174.9958,88.5827,271.5317,0,U,53592,999,12461,.56778E-4,.616E-5,0
STARLINK-4671,2022-104F,2024-11-28T19:39:45.525888,15.25918504,.0006997,53.1990,168.4956,143.5492,216.5985,0,U,53593,999,12469,.21872E-2,.56966E-3,0
STARLINK-4681,2022-104G,2024-11-28T22:41:14.626752,15.08848988,.0001482,53.2161,174.8988,85.5851,274.5310,0,U,53594,999,12577,.11317E-3,.1514E-4,0
STARLINK-4684,2022-104H,2024-11-28T19:35:49.967520,15.08806534,.00009,53.2160,175.5160,89.4610,270.6485,0,U,53595,999,12500,-.43801E-4,-.984E-5,0
STARLINK-4668,2022-104J,2024-11-28T20:07:50.142720,15.34218141,.0003247,53.2096,153.2804,206.6525,153.4311,0,U,53596,999,12560,.22278E-2,.75218E-3,0
STARLINK-4676,2022-104L,2024-11-27T23:54:00.874080,15.08845947,.000105,53.2159,178.9254,119.4104,240.6993,0,U,53598,999,12516,.21075E-4,.48E-6,0
STARLINK-4677,2022-104N,2024-11-28T23:40:59.812896,15.08844918,.0001519,53.2154,175.1413,86.7135,273.4031,0,U,53600,999,12502,.10594E-3,.1399E-4,0
STARLINK-4675,2022-104P,2024-11-28T22:25:23.904480,15.08812480,.0001695,53.2162,174.8301,86.3217,273.7969,0,U,53601,999,12461,-.31698E-4,-.792E-5,0
STARLINK-4648,2022-104Q,2024-11-28T06:40:06.806784,15.08845159,.000134,53.2151,172.8638,86.6536,273.4609,0,U,53602,999,12527,.14709E-3,.2054E-4,0
